{"type": "FeatureCollection", "features": [{"type": "Feature", "properties": {"norad_id": 28899, "name": "INMARSAT 4-F2 (SOUTHPAN/PRN 122)", "group": "gnss", "lat": -3.706975730150089, "lon": -86.6115078834526, "alt_km": 35773.734108814555, "timestamp": "2025-12-01T03:58:50.203407+00:00", "meta": {"OBJECT_NAME": "INMARSAT 4-F2 (SOUTHPAN/PRN 122)", "OBJECT_ID": "2005-044A", "EPOCH": "2025-11-30T14:31:33.105792", "MEAN_MOTION": 1.00271038, "ECCENTRICITY": 0.0003377, "INCLINATION": 4.835, "RA_OF_ASC_NODE": 43.6494, "ARG_OF_PERICENTER": 206.1893, "MEAN_ANOMALY": 181.2859, "EPHEMERIS_TYPE": 0, "CLASSIFICATION_TYPE": "U", "NORAD_CAT_ID": 28899, "ELEMENT_SET_NO": 999, "REV_AT_EPOCH": 7353, "BSTAR": 0, "MEAN_MOTION_DOT": -2.4e-06, "MEAN_MOTION_DDOT": 0, "GROUP": "gnss"}, "tle": {"line1": "1 28899U 05044A   25334.60524428 -.00000240  00000+0  00000+0 0  9992", "line2": "2 28899   4.8350  43.6494 0003377 206.1893 181.2859  1.00271038 73531"}}, "geometry": {"type": "Point", "coordinates": [-86.6115078834526, -3.706975730150089]}}, {"type": "Feature", "properties": {"norad_id": 37605, "name": "GSAT-8 (GAGAN/PRN 127)", "group": "gnss", "lat": 1.571069355923713, "lon": -175.04962740407402, "alt_km": 35776.43593609186, "timestamp": "2025-12-01T03:58:50.203536+00:00", "meta": {"OBJECT_NAME": "GSAT-8 (GAGAN/PRN 127)", "OBJECT_ID": "2011-022A", "EPOCH": "2025-11-30T19:14:31.982784", "MEAN_MOTION": 1.00271954, "ECCENTRICITY": 0.0008849, "INCLINATION": 1.616, "RA_OF_ASC_NODE": 84.3262, "ARG_OF_PERICENTER": 176.3214, "MEAN_ANOMALY": 152.9899, "EPHEMERIS_TYPE": 0, "CLASSIFICATION_TYPE": "U", "NORAD_CAT_ID": 37605, "ELEMENT_SET_NO": 999, "REV_AT_EPOCH": 5122, "BSTAR": 0, "MEAN_MOTION_DOT": 1.06e-06, "MEAN_MOTION_DDOT": 0, "GROUP": "gnss"}, "tle": {"line1": "1 37605U 11022A   25334.80175906  .00000106  00000+0  00000+0 0  9995", "line2": "2 37605   1.6160  84.3262 0008849 176.3214 152.9899  1.00271954 51227"}}, "geometry": {"type": "Point", "coordinates": [-175.04962740407402, 1.571069355923713]}}, {"type": "Feature", "properties": {"norad_id": 37951, "name": "LUCH 5A (SDCM/PRN 140)", "group": "gnss", "lat": -5.328680740477862, "lon": -63.29596827021222, "alt_km": 35770.08831984143, "timestamp": "2025-12-01T03:58:50.203572+00:00", "meta": {"OBJECT_NAME": "LUCH 5A (SDCM/PRN 140)", "OBJECT_ID": "2011-074B", "EPOCH": "2025-11-30T14:38:09.973824", "MEAN_MOTION": 1.0027323, "ECCENTRICITY": 0.0005783, "INCLINATION": 8.2465, "RA_OF_ASC_NODE": 76.7646, "ARG_OF_PERICENTER": 171.9084, "MEAN_ANOMALY": 207.5733, "EPHEMERIS_TYPE": 0, "CLASSIFICATION_TYPE": "U", "NORAD_CAT_ID": 37951, "ELEMENT_SET_NO": 999, "REV_AT_EPOCH": 5106, "BSTAR": 0, "MEAN_MOTION_DOT": -2.8e-07, "MEAN_MOTION_DDOT": 0, "GROUP": "gnss"}, "tle": {"line1": "1 37951U 11074B   25334.60983766 -.00000028  00000+0  00000+0 0  9999", "line2": "2 37951   8.2465  76.7646 0005783 171.9084 207.5733  1.00273230 51068"}}, "geometry": {"type": "Point", "coordinates": [-63.29596827021222, -5.328680740477862]}}, {"type": "Feature", "properties": {"norad_id": 38652, "name": "SES-5 (EGNOS/PRN 136)", "group": "gnss", "lat": -0.01675461142823802, "lon": 134.92998975455123, "alt_km": 35789.15950787026, "timestamp": "2025-12-01T03:58:50.203601+00:00", "meta": {"OBJECT_NAME": "SES-5 (EGNOS/PRN 136)", "OBJECT_ID": "2012-036A", "EPOCH": "2025-11-30T15:34:42.060288", "MEAN_MOTION": 1.00271359, "ECCENTRICITY": 0.0001986, "INCLINATION": 0.0591, "RA_OF_ASC_NODE": 302.0882, "ARG_OF_PERICENTER": 303.658, "MEAN_ANOMALY": 62.6928, "EPHEMERIS_TYPE": 0, "CLASSIFICATION_TYPE": "U", "NORAD_CAT_ID": 38652, "ELEMENT_SET_NO": 999, "REV_AT_EPOCH": 4247, "BSTAR": 0, "MEAN_MOTION_DOT": 5.6e-07, "MEAN_MOTION_DDOT": 0, "GROUP": "gnss"}, "tle": {"line1": "1 38652U 12036A   25334.64909792  .00000056  00000+0  00000+0 0  9998", "line2": "2 38652   0.0591 302.0882 0001986 303.6580  62.6928  1.00271359 42471"}}, "geometry": {"type": "Point", "coordinates": [134.92998975455123, -0.01675461142823802]}}, {"type": "Feature", "properties": {"norad_id": 38779, "name": "GSAT-10 (GAGAN/PRN 128)", "group": "gnss", "lat": -0.04700998546969142, "lon": -147.0196846346086, "alt_km": 35784.13673867276, "timestamp": "2025-12-01T03:58:50.203623+00:00", "meta": {"OBJECT_NAME": "GSAT-10 (GAGAN/PRN 128)", "OBJECT_ID": "2012-051B", "EPOCH": "2025-11-30T19:22:31.219392", "MEAN_MOTION": 1.00269602, "ECCENTRICITY": 0.0002717, "INCLINATION": 0.0389, "RA_OF_ASC_NODE": 261.6436, "ARG_OF_PERICENTER": 234.5139, "MEAN_ANOMALY": 307.3932, "EPHEMERIS_TYPE": 0, "CLASSIFICATION_TYPE": "U", "NORAD_CAT_ID": 38779, "ELEMENT_SET_NO": 999, "REV_AT_EPOCH": 4810, "BSTAR": 0, "MEAN_MOTION_DOT": -1.43e-06, "MEAN_MOTION_DDOT": 0, "GROUP": "gnss"}, "tle": {"line1": "1 38779U 12051B   25334.80730578 -.00000143  00000+0  00000+0 0  9995", "line2": "2 38779   0.0389 261.6436 0002717 234.5139 307.3932  1.00269602 48104"}}, "geometry": {"type": "Point", "coordinates": [-147.0196846346086, -0.04700998546969142]}}, {"type": "Feature", "properties": {"norad_id": 38977, "name": "LUCH 5B (SDCM/PRN 125)", "group": "gnss", "lat": 8.856480028940025, "lon": 113.179670375154, "alt_km": 35804.152685285524, "timestamp": "2025-12-01T03:58:50.203641+00:00", "meta": {"OBJECT_NAME": "LUCH 5B (SDCM/PRN 125)", "OBJECT_ID": "2012-061A", "EPOCH": "2025-11-30T00:04:03.552096", "MEAN_MOTION": 1.00269398, "ECCENTRICITY": 0.00075099, "INCLINATION": 10.0516, "RA_OF_ASC_NODE": 51.8208, "ARG_OF_PERICENTER": 187.2602, "MEAN_ANOMALY": 174.7304, "EPHEMERIS_TYPE": 0, "CLASSIFICATION_TYPE": "U", "NORAD_CAT_ID": 38977, "ELEMENT_SET_NO": 999, "REV_AT_EPOCH": 4761, "BSTAR": 0, "MEAN_MOTION_DOT": -1.19e-06, "MEAN_MOTION_DDOT": 0, "GROUP": "gnss"}, "tle": {"line1": "1 38977U 12061A   25334.00281889 -.00000119  00000+0  00000+0 0  9997", "line2": "2 38977  10.0516  51.8208 0007509 187.2602 174.7304  1.00269398 47612"}}, "geometry": {"type": "Point", "coordinates": [113.179670375154, 8.856480028940025]}}, {"type": "Feature", "properties": {"norad_id": 39199, "name": "IRNSS-1A", "group": "gnss", "lat": 30.612339458900045, "lon": -169.98240700510473, "alt_km": 35744.92483385211, "timestamp": "2025-12-01T03:58:50.203670+00:00", "meta": {"OBJECT_NAME": "IRNSS-1A", "OBJECT_ID": "2013-034A", "EPOCH": "2025-11-29T20:16:50.456352", "MEAN_MOTION": 1.00278191, "ECCENTRICITY": 0.00217208, "INCLINATION": 35.2795, "RA_OF_ASC_NODE": 66.7394, "ARG_OF_PERICENTER": 185.4975, "MEAN_ANOMALY": 176.0627, "EPHEMERIS_TYPE": 0, "CLASSIFICATION_TYPE": "U", "NORAD_CAT_ID": 39199, "ELEMENT_SET_NO": 999, "REV_AT_EPOCH": 4537, "BSTAR": 0, "MEAN_MOTION_DOT": 8.1e-07, "MEAN_MOTION_DDOT": 0, "GROUP": "gnss"}, "tle": {"line1": "1 39199U 13034A   25333.84502843  .00000081  00000+0  00000+0 0  9999", "line2": "2 39199  35.2795  66.7394 0021720 185.4975 176.0627  1.00278191 45377"}}, "geometry": {"type": "Point", "coordinates": [-169.98240700510473, 30.612339458900045]}}, {"type": "Feature", "properties": {"norad_id": 39617, "name": "ASTRA 5B (EGNOS/PRN 123)", "group": "gnss", "lat": 0.06575231461682689, "lon": 153.43966160730892, "alt_km": 35792.34941839317, "timestamp": "2025-12-01T03:58:50.203703+00:00", "meta": {"OBJECT_NAME": "ASTRA 5B (EGNOS/PRN 123)", "OBJECT_ID": "2014-011B", "EPOCH": "2025-11-30T19:05:32.845056", "MEAN_MOTION": 1.00272815, "ECCENTRICITY": 0.0004659, "INCLINATION": 0.0798, "RA_OF_ASC_NODE": 53.2979, "ARG_OF_PERICENTER": 209.9014, "MEAN_ANOMALY": 116.632, "EPHEMERIS_TYPE": 0, "CLASSIFICATION_TYPE": "U", "NORAD_CAT_ID": 39617, "ELEMENT_SET_NO": 999, "REV_AT_EPOCH": 4267, "BSTAR": 0, "MEAN_MOTION_DOT": 1.59e-06, "MEAN_MOTION_DDOT": 0, "GROUP": "gnss"}, "tle": {"line1": "1 39617U 14011B   25334.79551904  .00000159  00000+0  00000+0 0  9993", "line2": "2 39617   0.0798  53.2979 0004659 209.9014 116.6320  1.00272815 42670"}}, "geometry": {"type": "Point", "coordinates": [153.43966160730892, 0.06575231461682689]}}, {"type": "Feature", "properties": {"norad_id": 39635, "name": "IRNSS-1B", "group": "gnss", "lat": -24.365728450366124, "lon": -171.39935113691178, "alt_km": 35822.85587606279, "timestamp": "2025-12-01T03:58:50.203717+00:00", "meta": {"OBJECT_NAME": "IRNSS-1B", "OBJECT_ID": "2014-017A", "EPOCH": "2025-11-28T20:06:06.175008", "MEAN_MOTION": 1.00274122, "ECCENTRICITY": 0.00176916, "INCLINATION": 28.849, "RA_OF_ASC_NODE": 243.8302, "ARG_OF_PERICENTER": 183.8746, "MEAN_ANOMALY": 356.8041, "EPHEMERIS_TYPE": 0, "CLASSIFICATION_TYPE": "U", "NORAD_CAT_ID": 39635, "ELEMENT_SET_NO": 999, "REV_AT_EPOCH": 4278, "BSTAR": 0, "MEAN_MOTION_DOT": 1.13e-06, "MEAN_MOTION_DDOT": 0, "GROUP": "gnss"}, "tle": {"line1": "1 39635U 14017A   25332.83757147  .00000113  00000+0  00000+0 0  9999", "line2": "2 39635  28.8490 243.8302 0017691 183.8746 356.8041  1.00274122 42789"}}, "geometry": {"type": "Point", "coordinates": [-171.39935113691178, -24.365728450366124]}}, {"type": "Feature", "properties": {"norad_id": 39727, "name": "LUCH 5V (SDCM/PRN 141)", "group": "gnss", "lat": 2.0765701987145118, "lon": -135.21349504530664, "alt_km": 35772.27956746612, "timestamp": "2025-12-01T03:58:50.203731+00:00", "meta": {"OBJECT_NAME": "LUCH 5V (SDCM/PRN 141)", "OBJECT_ID": "2014-023A", "EPOCH": "2025-11-30T19:25:45.908832", "MEAN_MOTION": 1.00272972, "ECCENTRICITY": 0.0004326, "INCLINATION": 4.6368, "RA_OF_ASC_NODE": 71.6403, "ARG_OF_PERICENTER": 196.8921, "MEAN_ANOMALY": 187.6155, "EPHEMERIS_TYPE": 0, "CLASSIFICATION_TYPE": "U", "NORAD_CAT_ID": 39727, "ELEMENT_SET_NO": 999, "REV_AT_EPOCH": 4237, "BSTAR": 0, "MEAN_MOTION_DOT": -2.48e-06, "MEAN_MOTION_DDOT": 0, "GROUP": "gnss"}, "tle": {"line1": "1 39727U 14023A   25334.80955913 -.00000248  00000+0  00000+0 0  9998", "line2": "2 39727   4.6368  71.6403 0004326 196.8921 187.6155  1.00272972 42378"}}, "geometry": {"type": "Point", "coordinates": [-135.21349504530664, 2.0765701987145118]}}]}